{
  "type": "FeatureCollection",
  "features": [
    {
      "type": "Feature",
      "properties": {
        "norad_id": 41026,
        "name": "YAOGAN-28",
        "group": "resource",
        "lat": 5.198151157049123,
        "lon": 135.12327109288597,
        "alt_km": 493.6419946966307,
        "timestamp": "2025-12-24T07:45:05.856141+00:00",
        "meta_object_name": "YAOGAN-28",
        "meta_object_id": "2015-064A",
        "meta_epoch": "2025-12-23T22:16:37.490016",
        "meta_mean_motion": 15.24524768,
        "meta_eccentricity": 0.00126653,
        "meta_inclination": 97.2818,
        "meta_ra_of_asc_node": 135.4061,
        "meta_arg_of_pericenter": 90.5846,
        "meta_mean_anomaly": 269.6844,
        "meta_ephemeris_type": 0,
        "meta_classification_type": "U",
        "meta_norad_cat_id": 41026,
        "meta_element_set_no": 999,
        "meta_rev_at_epoch": 56395,
        "meta_bstar": 0.00034893216,
        "meta_mean_motion_dot": 8.536e-05,
        "meta_mean_motion_ddot": 0,
        "tle_line1": "1 41026U 15064A   25357.92821169  .00008536  00000+0  34893-3 0  9990",
        "tle_line2": "2 41026  97.2818 135.4061 0012665  90.5846 269.6844 15.24524768563953"
      },
      "geometry": {
        "type": "Point",
        "coordinates": [
          135.12327109288597,
          5.198151157049123
        ]
      }
    },
    {
      "type": "Feature",
      "properties": {
        "norad_id": 41038,
        "name": "YAOGAN-29",
        "group": "resource",
        "lat": 7.474709172775577,
        "lon": -157.4091995403317,
        "alt_km": 621.6342235845714,
        "timestamp": "2025-12-24T07:45:05.856151+00:00",
        "meta_object_name": "YAOGAN-29",
        "meta_object_id": "2015-069A",
        "meta_epoch": "2025-12-23T22:52:47.042400",
        "meta_mean_motion": 14.82892873,
        "meta_eccentricity": 8.129e-05,
        "meta_inclination": 98.0204,
        "meta_ra_of_asc_node": 21.16,
        "meta_arg_of_pericenter": 170.9921,
        "meta_mean_anomaly": 189.1307,
        "meta_ephemeris_type": 0,
        "meta_classification_type": "U",
        "meta_norad_cat_id": 41038,
        "meta_element_set_no": 999,
        "meta_rev_at_epoch": 54465,
        "meta_bstar": 4.7213215e-05,
        "meta_mean_motion_dot": 3.28e-06,
        "meta_mean_motion_ddot": 0,
        "tle_line1": "1 41038U 15069A   25357.95332225  .00000328  00000+0  47213-4 0  9993",
        "tle_line2": "2 41038  98.0204  21.1600 0000812 170.9921 189.1307 14.82892873544656"
      },
      "geometry": {
        "type": "Point",
        "coordinates": [
          -157.4091995403317,
          7.474709172775577
        ]
      }
    },
    {
      "type": "Feature",
      "properties": {
        "norad_id": 41167,
        "name": "KENT RIDGE 1",
        "group": "resource",
        "lat": 14.321149108759839,
        "lon": -162.0979360290049,
        "alt_km": 500.27531548170464,
        "timestamp": "2025-12-24T07:45:05.856161+00:00",
        "meta_object_name": "KENT RIDGE 1",
        "meta_object_id": "2015-077B",
        "meta_epoch": "2025-12-23T17:16:23.896128",
        "meta_mean_motion": 15.21715063,
        "meta_eccentricity": 0.00085411,
        "meta_inclination": 14.9789,
        "meta_ra_of_asc_node": 129.6607,
        "meta_arg_of_pericenter": 285.8156,
        "meta_mean_anomaly": 74.1224,
        "meta_ephemeris_type": 0,
        "meta_classification_type": "U",
        "meta_norad_cat_id": 41167,
        "meta_element_set_no": 999,
        "meta_rev_at_epoch": 55431,
        "meta_bstar": 0.00016014637,
        "meta_mean_motion_dot": 4.493e-05,
        "meta_mean_motion_ddot": 0,
        "tle_line1": "1 41167U 15077B   25357.71972102  .00004493  00000+0  16015-3 0  9995",
        "tle_line2": "2 41167  14.9789 129.6607 0008541 285.8156  74.1224 15.21715063554312"
      },
      "geometry": {
        "type": "Point",
        "coordinates": [
          -162.0979360290049,
          14.321149108759839
        ]
      }
    },
    {
      "type": "Feature",
      "properties": {
        "norad_id": 41194,
        "name": "GAOFEN-4",
        "group": "resource",
        "lat": -0.17775044020230638,
        "lon": -44.89057330605634,
        "alt_km": 35795.82536525736,
        "timestamp": "2025-12-24T07:45:05.856173+00:00",
        "meta_object_name": "GAOFEN-4",
        "meta_object_id": "2015-083A",
        "meta_epoch": "2025-12-19T15:27:26.627616",
        "meta_mean_motion": 1.00273138,
        "meta_eccentricity": 0.0002945,
        "meta_inclination": 0.1878,
        "meta_ra_of_asc_node": 81.7841,
        "meta_arg_of_pericenter": 93.4275,
        "meta_mean_anomaly": 250.8523,
        "meta_ephemeris_type": 0,
        "meta_classification_type": "U",
        "meta_norad_cat_id": 41194,
        "meta_element_set_no": 999,
        "meta_rev_at_epoch": 3672,
        "meta_bstar": 0,
        "meta_mean_motion_dot": -3.11e-06,
        "meta_mean_motion_ddot": 0,
        "tle_line1": "1 41194U 15083A   25353.64405819 -.00000311  00000+0  00000+0 0  9995",
        "tle_line2": "2 41194   0.1878  81.7841 0002945  93.4275 250.8523  1.00273138 36722"
      },
      "geometry": {
        "type": "Point",
        "coordinates": [
          -44.89057330605634,
          -0.17775044020230638
        ]
      }
    },
    {
      "type": "Feature",
      "properties": {
        "norad_id": 41240,
        "name": "JASON-3",
        "group": "resource",
        "lat": -0.19830801203605858,
        "lon": 133.38355489286917,
        "alt_km": 1312.7612307716354,
        "timestamp": "2025-12-24T07:45:05.856185+00:00",
        "meta_object_name": "JASON-3",
        "meta_object_id": "2016-002A",
        "meta_epoch": "2025-12-23T22:25:56.499744",
        "meta_mean_motion": 12.87626986,
        "meta_eccentricity": 0.00072741,
        "meta_inclination": 66.0403,
        "meta_ra_of_asc_node": 134.2879,
        "meta_arg_of_pericenter": 271.4263,
        "meta_mean_anomaly": 88.5923,
        "meta_ephemeris_type": 0,
        "meta_classification_type": "U",
        "meta_norad_cat_id": 41240,
        "meta_element_set_no": 999,
        "meta_rev_at_epoch": 46468,
        "meta_bstar": 7.0815147e-05,
        "meta_mean_motion_dot": -4.4e-07,
        "meta_mean_motion_ddot": 0,
        "tle_line1": "1 41240U 16002A   25357.93468171 -.00000044  00000+0  70815-4 0  9994",
        "tle_line2": "2 41240  66.0403 134.2879 0007274 271.4263  88.5923 12.87626986464689"
      },
      "geometry": {
        "type": "Point",
        "coordinates": [
          133.38355489286917,
          -0.19830801203605858
        ]
      }
    },
    {
      "type": "Feature",
      "properties": {
        "norad_id": 41335,
        "name": "SENTINEL-3A",
        "group": "resource",
        "lat": 52.73622584986822,
        "lon": 51.65944861259389,
        "alt_km": 797.2170142524092,
        "timestamp": "2025-12-24T07:45:05.856199+00:00",
        "meta_object_name": "SENTINEL-3A",
        "meta_object_id": "2016-011A",
        "meta_epoch": "2025-12-23T23:05:08.379456",
        "meta_mean_motion": 14.26734876,
        "meta_eccentricity": 8.949e-05,
        "meta_inclination": 98.6298,
        "meta_ra_of_asc_node": 62.8178,
        "meta_arg_of_pericenter": 96.17,
        "meta_mean_anomaly": 263.9582,
        "meta_ephemeris_type": 0,
        "meta_classification_type": "U",
        "meta_norad_cat_id": 41335,
        "meta_element_set_no": 999,
        "meta_rev_at_epoch": 51307,
        "meta_bstar": 7.4857748e-05,
        "meta_mean_motion_dot": 1.37e-06,
        "meta_mean_motion_ddot": 0,
        "tle_line1": "1 41335U 16011A   25357.96190254  .00000137  00000+0  74858-4 0  9999",
        "tle_line2": "2 41335  98.6298  62.8178 0000894  96.1700 263.9582 14.26734876513075"
      },
      "geometry": {
        "type": "Point",
        "coordinates": [
          51.65944861259389,
          52.73622584986822
        ]
      }
    },
    {
      "type": "Feature",
      "properties": {
        "norad_id": 41556,
        "name": "ZIYUAN 3-02 (ZY 3-02)",
        "group": "resource",
        "lat": 38.99619810313666,
        "lon": -101.66099207797583,
        "alt_km": 495.68455190091754,
        "timestamp": "2025-12-24T07:45:05.856215+00:00",
        "meta_object_name": "ZIYUAN 3-02 (ZY 3-02)",
        "meta_object_id": "2016-033A",
        "meta_epoch": "2025-12-23T23:14:30.098688",
        "meta_mean_motion": 15.21207999,
        "meta_eccentricity": 0.00113474,
        "meta_inclination": 97.4027,
        "meta_ra_of_asc_node": 71.9477,
        "meta_arg_of_pericenter": 204.2534,
        "meta_mean_anomaly": 155.8169,
        "meta_ephemeris_type": 0,
        "meta_classification_type": "U",
        "meta_norad_cat_id": 41556,
        "meta_element_set_no": 999,
        "meta_rev_at_epoch": 53134,
        "meta_bstar": 0.00035607753,
        "meta_mean_motion_dot": 7.89e-05,
        "meta_mean_motion_ddot": 0,
        "tle_line1": "1 41556U 16033A   25357.96840392  .00007890  00000+0  35608-3 0  9995",
        "tle_line2": "2 41556  97.4027  71.9477 0011347 204.2534 155.8169 15.21207999531349"
      },
      "geometry": {
        "type": "Point",
        "coordinates": [
          -101.66099207797583,
          38.99619810313666
        ]
      }
    }
  ]
}